ALOS-2                  
1 39766U 14029A   26076.15818661  .00001715  00000+0  23614-3 0  9996
2 39766  97.9192 174.6468 0001437  93.9590 266.1786 14.79534733637970
YAOGAN-29               
1 41038U 15069A   26076.21639126  .00000288  00000+0  42161-4 0  9993
2 41038  98.0137 104.6660 0001424  22.7273 337.4003 14.83003350556994
ASTRO-H (HITOMI)        
1 41337U 16012A   26075.97138017  .00002718  00000+0  15721-3 0  9990
2 41337  30.9999 309.5569 0009660  43.9666 316.1739 15.10055043553334
HXMT (HUIYAN)           
1 42758U 17034A   26076.14949574  .00004712  00000+0  23879-3 0  9990
2 42758  43.0159 335.1980 0033202 281.3032  78.4086 15.17572874483676
SAOCOM 1A               
1 43641U 18076A   26076.18667097 -.00000183  00000+0 -16393-4 0  9994
2 43641  97.8896 264.2532 0001424  85.6948 274.4428 14.82146889402471
H-2A R/B                
1 43682U 18084L   26075.87312860  .00016138  00000+0  38098-3 0  9998
2 43682  98.8725 294.7981 0024815   0.7070 359.4203 15.41667803406881
SAOCOM 1B               
1 46265U 20059A   26073.04490030  .00000161  00000+0  26755-4 0  9993
2 46265  97.8899 260.2532 0001383  84.3427 275.7944 14.82151938299390
CSS (TIANHE)            
1 48274U 21035A   26075.56184825  .00021647  00000+0  25302-3 0  9999
2 48274  41.4671 166.3358 0006265 313.8090  46.2230 15.61049688278681
COSMOS 2550             
1 48865U 21056A   26076.14655870 -.00000204  00000+0 -37996-6 0  9999
2 48865  67.1448  18.3252 0008297 268.8880  91.1323 15.33878800264600
CZ-2C R/B               
1 52794U 22058K   26075.90461185  .00031172  00000+0  44728-3 0  9999
2 52794  50.1879 281.1612 0041966 231.5981 128.1218 15.54771257211253
CZ-2C R/B               
1 54039U 22132E   26075.99422310  .00038020  00000+0  42281-3 0  9993
2 54039  97.2950  79.5356 0019940  68.1935 292.1443 15.62542134191510
GSLV R/B                
1 54149U 22138AN  26075.67367639  .00002365  00000+0  20291-3 0  9998
2 54149  87.3885 164.0252 0023699 123.4790 236.8712 14.96827402184970
